[{"OBJECT_NAME":"METOP-B","OBJECT_ID":"2012-049A","EPOCH":"2026-03-09T20:49:00.301440","MEAN_MOTION":14.2144474,"ECCENTRICITY":0.0001197,"INCLINATION":98.6642,"RA_OF_ASC_NODE":122.2903,"ARG_OF_PERICENTER":264.5889,"MEAN_ANOMALY":95.5152,"EPHEMERIS_TYPE":0,"CLASSIFICATION_TYPE":"U","NORAD_CAT_ID":38771,"ELEMENT_SET_NO":999,"REV_AT_EPOCH":69915,"BSTAR":8.3719118e-5,"MEAN_MOTION_DOT":1.4e-6,"MEAN_MOTION_DDOT":0},{"OBJECT_NAME":"COSMOS 1275 DEB","OBJECT_ID":"1981-053SL","EPOCH":"2026-03-06T15:18:17.612640","MEAN_MOTION":14.10061006,"ECCENTRICITY":0.00692248,"INCLINATION":82.9445,"RA_OF_ASC_NODE":26.7424,"ARG_OF_PERICENTER":319.3849,"MEAN_ANOMALY":40.2173,"EPHEMERIS_TYPE":0,"CLASSIFICATION_TYPE":"U","NORAD_CAT_ID":42172,"ELEMENT_SET_NO":999,"REV_AT_EPOCH":62889,"BSTAR":0.0023766782,"MEAN_MOTION_DOT":4.305e-5,"MEAN_MOTION_DDOT":0}]
